     2              NAVIGATION DATA                         RINEX VERSION / TYPE
CCRINEXN V1.6.0 UX  CDDIS               31-MAY-18 17:31     PGM / RUN BY / DATE 
IGS BROADCAST EPHEMERIS FILE                                COMMENT             
    0.6519D-08  0.2235D-07 -0.5960D-07 -0.1192D-06          ION ALPHA           
    0.8602D+05  0.9830D+05 -0.6554D+05 -0.5243D+06          ION BETA            
   -0.186264514923D-08-0.355271367880D-14   503808     2003 DELTA-UTC: A0,A1,T,W
    18                                                      LEAP SECONDS        
                                                            END OF HEADER       
28 18  5 30 20  0  0.0 0.719642266631D-03 0.318323145621D-11 0.000000000000D+00
    0.750000000000D+02 0.543437500000D+02 0.409374179000D-08-0.236324231748D+01
    0.302493572235D-05 0.194842773490D-01 0.105984508991D-05 0.515368260002D+04
    0.331200000000D+06 0.189989805222D-06 0.152082070600D+01 0.197440385819D-06
    0.985605274393D+00 0.366093750000D+03-0.151958001396D+01-0.779996778277D-08
    0.347871620399D-09 0.100000000000D+01 0.200300000000D+04 0.000000000000D+00
    0.200000000000D+01 0.000000000000D+00-0.111758708954D-07 0.750000000000D+02
    0.324030000000D+06 0.000000000000D+00 0.000000000000D+00 0.000000000000D+00
29 18  5 30 20  0  0.0 0.441033858806D-03-0.648014975013D-11 0.000000000000D+00
    0.620000000000D+02-0.124468750000D+03 0.418267422517D-08-0.228794667295D+01
   -0.635161995888D-05 0.791874597780D-03 0.510737299919D-05 0.515369201660D+04
    0.331200000000D+06 0.353902578354D-07 0.254280409656D+01 0.968575477600D-07
    0.984131186934D+00 0.294437500000D+03 0.117682857182D+01-0.800961934708D-08
   -0.242152943785D-09 0.100000000000D+01 0.200300000000D+04 0.000000000000D+00
    0.200000000000D+01 0.000000000000D+00-0.102445483208D-07 0.620000000000D+02
    0.324018000000D+06 0.400000000000D+01 0.000000000000D+00 0.000000000000D+00
30 18  5 30 20  0  0.0 0.682161189616D-04-0.432009983342D-11 0.000000000000D+00
    0.830000000000D+02 0.908750000000D+02 0.453268889089D-08 0.260278636667D+00
    0.479258596897D-05 0.342842156533D-02 0.971741974354D-05 0.515373928642D+04
    0.331200000000D+06 0.931322574615D-07 0.438440046194D+00 0.502914190292D-07
    0.944577214598D+00 0.183625000000D+03-0.307633904783D+01-0.801354804736D-08
    0.764317567570D-10 0.100000000000D+01 0.200300000000D+04 0.000000000000D+00
    0.200000000000D+01 0.000000000000D+00 0.372529029846D-08 0.830000000000D+02
    0.324030000000D+06 0.000000000000D+00 0.000000000000D+00 0.000000000000D+00
31 18  5 30 20  0  0.0 0.118015334010D-03-0.261479726760D-11 0.000000000000D+00
    0.680000000000D+02 0.101031250000D+03 0.412410035676D-08-0.139298371936D-01
    0.540353357792D-05 0.876143260393D-02 0.103395432234D-04 0.515367518997D+04
    0.331200000000D+06 0.100582838059D-06 0.417425011473D+00-0.651925802231D-07
    0.963637388462D+00 0.178312500000D+03-0.129167515020D+00-0.791854412486D-08
    0.546451333320D-10 0.100000000000D+01 0.200300000000D+04 0.000000000000D+00
    0.200000000000D+01 0.000000000000D+00-0.135041773319D-07 0.680000000000D+02
    0.324018000000D+06 0.400000000000D+01 0.000000000000D+00 0.000000000000D+00
32 18  5 30 20  0  0.0-0.501977279782D-03 0.579802872380D-11 0.000000000000D+00
    0.990000000000D+02-0.192187500000D+02 0.452947438508D-08-0.254332493489D+01
   -0.946223735809D-06 0.214901415166D-02 0.781007111072D-05 0.515366489601D+04
    0.331200000000D+06-0.186264514923D-07-0.667312206015D+00 0.149011611938D-07
    0.957069467065D+00 0.227062500000D+03-0.255432495679D+01-0.788068540504D-08
   -0.474305471012D-09 0.100000000000D+01 0.200300000000D+04 0.000000000000D+00
    0.200000000000D+01 0.000000000000D+00 0.465661287308D-09 0.990000000000D+02
    0.324018000000D+06 0.400000000000D+01 0.000000000000D+00 0.000000000000D+00
 7 18  5 30 21 25  0.0 0.183307274710D-03-0.618527451479D-11 0.000000000000D+00
    0.970000000000D+02 0.734218750000D+02 0.415892323585D-08 0.914896188184D+00
    0.405311584473D-05 0.116442132276D-01 0.107502564788D-04 0.515367143157D+04
    0.336300000000D+06-0.175088644028D-06 0.404879603878D+00 0.114552676678D-06
    0.958991964516D+00 0.171914062500D+03-0.252864909579D+01-0.788437905778D-08
   -0.165364030933D-09 0.100000000000D+01 0.200300000000D+04 0.000000000000D+00
    0.128000000000D+03 0.000000000000D+00-0.111758708954D-07 0.970000000000D+02
    0.337548000000D+06 0.400000000000D+01 0.000000000000D+00 0.000000000000D+00
32 18  5 30 21 25  0.0-0.501947710291D-03 0.576960701437D-11 0.000000000000D+00
    0.970000000000D+02-0.156484375000D+02 0.458858399008D-08-0.179987449913D+01
   -0.880099833012D-06 0.214840314584D-02 0.769365578890D-05 0.515366340710D+04
    0.336300000000D+06 0.931322574616D-09-0.667352003970D+00-0.828877091408D-07
    0.957066893060D+00 0.230242187500D+03-0.255389521656D+01-0.788795063512D-08
   -0.551094383865D-09 0.100000000000D+01 0.200300000000D+04 0.000000000000D+00
    0.320000000000D+02 0.000000000000D+00 0.465661287308D-09 0.970000000000D+02
    0.333756000000D+06 0.400000000000D+01 0.000000000000D+00 0.000000000000D+00
 1 18  5 30 21 30  0.0-0.520580797456D-04-0.308020275952D-11 0.000000000000D+00
    0.980000000000D+02-0.687812500000D+02 0.408892031994D-08 0.164450861120D+01
   -0.343564897776D-05 0.780835730257D-02 0.107754021883D-04 0.515367816202D+04
    0.336600000000D+06-0.149942934513D-06-0.274922459660D+01 0.139698386192D-06
    0.971620985925D+00 0.177316406250D+03 0.630589257385D+00-0.771758639591D-08
    0.254474885615D-09 0.100000000000D+01 0.200300000000D+04 0.000000000000D+00
    0.256000000000D+03 0.000000000000D+00 0.558793544769D-08 0.980000000000D+02
    0.332190000000D+06 0.400000000000D+01 0.000000000000D+00 0.000000000000D+00
 3 18  5 30 21 30  0.0 0.802848662715D-04 0.698108237884D-11 0.000000000000D+00
    0.980000000000D+02 0.163593750000D+02 0.485627371186D-08 0.768808785755D+00
    0.839121639728D-06 0.139377056621D-02 0.594090670347D-05 0.515374177385D+04
    0.336600000000D+06 0.214204192162D-07-0.170649447782D+01 0.838190317154D-08
    0.960575131536D+00 0.262976562500D+03 0.431726443756D+00-0.811028132465D-08
    0.223759320474D-09 0.100000000000D+01 0.200300000000D+04 0.000000000000D+00
    0.512000000000D+03 0.000000000000D+00 0.232830643654D-08 0.980000000000D+02
    0.335406000000D+06 0.400000000000D+01 0.000000000000D+00 0.000000000000D+00
 6 18  5 30 21 30  0.0 0.399793265387D-03-0.277111666946D-11 0.000000000000D+00
    0.980000000000D+02-0.560078125000D+02 0.408606305807D-08 0.180402020562D+01
   -0.284146517515D-05 0.116878730478D-02 0.102482736111D-04 0.515363788268D+04
    0.336600000000D+06-0.186264514923D-08-0.275754795899D+01-0.428408384323D-07
    0.971341061671D+00 0.187703125000D+03-0.107369727256D+01-0.764222611399D-08
    0.171435712414D-09 0.100000000000D+01 0.200300000000D+04 0.000000000000D+00
    0.204800000000D+04 0.000000000000D+00 0.465661287308D-08 0.980000000000D+02
    0.332886000000D+06 0.400000000000D+01 0.000000000000D+00 0.000000000000D+00
 8 18  5 30 21 30  0.0-0.103055121144D-03-0.127187149701D-11 0.000000000000D+00
    0.980000000000D+02-0.120468750000D+03 0.451179507723D-08-0.217040584419D+01
   -0.629946589470D-05 0.346342724515D-02 0.371132045984D-05 0.515357524166D+04
    0.336600000000D+06-0.810250639916D-07 0.246959776091D+01 0.698491930962D-07
    0.969323830765D+00 0.312179687500D+03-0.425935629563D+00-0.814421130940D-08
   -0.251617623741D-09 0.100000000000D+01 0.200300000000D+04 0.000000000000D+00
    0.256000000000D+03 0.000000000000D+00 0.512227416039D-08 0.980000000000D+02
    0.336150000000D+06 0.400000000000D+01 0.000000000000D+00 0.000000000000D+00
 9 18  5 30 21 30  0.0 0.514403916895D-03 0.301980662698D-12 0.000000000000D+00
    0.980000000000D+02-0.222617187500D+02 0.479055668877D-08-0.228985271111D+01
   -0.114180147648D-05 0.928069872316D-03 0.744313001633D-05 0.515361002796D+04
    0.336600000000D+06 0.484287738800D-07-0.672331782963D+00-0.838190317154D-08
    0.952682499050D+00 0.231437500000D+03 0.185703136680D+01-0.805581477019D-08
   -0.603775149658D-09 0.100000000000D+01 0.200300000000D+04 0.000000000000D+00
    0.102400000000D+04 0.000000000000D+00 0.931322574616D-09 0.980000000000D+02
    0.336246000000D+06 0.400000000000D+01 0.000000000000D+00 0.000000000000D+00
12 18  5 30 21 30  0.0 0.330473267240D-03-0.238387087848D-11 0.000000000000D+00
    0.980000000000D+02 0.487617187500D+02 0.421231831711D-08 0.363928533804D+00
    0.261981040239D-05 0.720829842612D-02 0.210478901863D-05 0.515358298848D+04
    0.336600000000D+06-0.419095158577D-07 0.149761744866D+01 0.894069671631D-07
    0.986314331037D+00 0.352550781250D+03 0.987183293404D+00-0.821760722378D-08
    0.213580325049D-09 0.100000000000D+01 0.200300000000D+04 0.000000000000D+00
    0.640000000000D+02 0.000000000000D+00-0.125728547573D-07 0.980000000000D+02
    0.332220000000D+06 0.400000000000D+01 0.000000000000D+00 0.000000000000D+00
15 18  5 30 21 30  0.0-0.353436218575D-03 0.589750470681D-12 0.000000000000D+00
    0.980000000000D+02-0.255703125000D+02 0.529022035891D-08 0.294533270258D+01
   -0.133644789457D-05 0.102739729337D-01 0.680889934301D-05 0.515374407515D+04
    0.336600000000D+06-0.260770320892D-07-0.743138969532D+00-0.931322574615D-07
    0.928156054980D+00 0.232320312500D+03 0.678617827111D+00-0.820224944121D-08
   -0.496092092798D-09 0.100000000000D+01 0.200300000000D+04 0.000000000000D+00
    0.102400000000D+04 0.000000000000D+00-0.111758708954D-07 0.980000000000D+02
    0.332220000000D+06 0.400000000000D+01 0.000000000000D+00 0.000000000000D+00
